NORAD_CAT_ID,OBJECT_NAME,OBJECT_TYPE,EPOCH,MEAN_MOTION,ECCENTRICITY,INCLINATION,RA_OF_ASC_NODE,ARG_OF_PERICENTER,MEAN_ANOMALY,BSTAR,MEAN_MOTION_DOT,MEAN_MOTION_DDOT,TLE_LINE0,TLE_LINE1,TLE_LINE2,SEMIMAJOR_AXIS,PERIOD,APOGEE,PERIGEE,DECAYED
52003.0,STARLINK-3654,PAYLOAD,2022-09-30 09:04:08,15.08850354,0.0001486999999999,53.2179,258.9154,73.0492,287.0663,0.00023189,3.406e-05,0.0,0 STARLINK-3654,1 52003U 22025AZ  22273.37787816  .00003406  00000-0  23189-3 0  9993,2 52003  53.2179 258.9154 0001487  73.0492 287.0663 15.08850354 32778,6917.849,95.437,540.742,538.685,0.0
52003.0,STARLINK-3654,PAYLOAD,2022-10-01 08:54:55,15.08843004,0.0001599,53.2181,254.4552,68.0803,292.0359,3.5785e-05,2.82e-06,0.0,0 STARLINK-3654,1 52003U 22025AZ  22274.37147701  .00000282  00000-0  35785-4 0  9992,2 52003  53.2181 254.4552 0001599  68.0803 292.0359 15.08843004 32927,6917.871,95.437,540.842,538.63,0.0
52003.0,STARLINK-3654,PAYLOAD,2022-10-01 20:02:37,15.08850851,0.0001493,53.2169,252.3737,61.2314,298.8828,0.00019441,2.808e-05,0.0,0 STARLINK-3654,1 52003U 22025AZ  22274.83515320  .00002808  00000-0  19441-3 0  9995,2 52003  53.2169 252.3737 0001493  61.2314 298.8828 15.08850851 31483,6917.847,95.437,540.745,538.679,0.0
52003.0,STARLINK-3654,PAYLOAD,2022-10-02 08:45:42,15.08842046,0.000143,53.2183,249.9949,68.1185,291.9959,-4.2778e-05,-9.69e-06,0.0,0 STARLINK-3654,1 52003U 22025AZ  22275.36507314 -.00000969  00000-0 -42778-4 0  9996,2 52003  53.2183 249.9949 0001430  68.1185 291.9959 15.08842046 31564,6917.874,95.437,540.7280000000002,538.75,0.0
52003.0,STARLINK-3654,PAYLOAD,2022-10-02 18:18:01,15.0883311,0.0001423,53.2174,248.2112,66.2613,293.8528,-0.0001473,-2.631e-05,0.0,0 STARLINK-3654,1 52003U 22025AZ  22275.76251798 -.00002631  00000-0 -14730-3 0  9996,2 52003  53.2174 248.2112 0001423  66.2613 293.8528 15.08833110 33135,6917.901,95.438,540.751,538.7819999999998,0.0
52003.0,STARLINK-3654,PAYLOAD,2022-10-02 19:53:24,15.08832991,0.000136,53.2178,247.9136,72.3209,287.7932,-0.00012863,-2.334e-05,0.0,0 STARLINK-3654,1 52003U 22025AZ  22275.82875987 -.00002334  00000-0 -12863-3 0  9990,2 52003  53.2178 247.9136 0001360  72.3209 287.7932 15.08832991 31630,6917.901999999999,95.438,540.7080000000002,538.826,0.0
52003.0,STARLINK-3654,PAYLOAD,2022-10-03 07:01:06,15.08845677,0.0001435,53.2174,245.832,66.5911,293.5232,0.00013199,1.814e-05,0.0,0 STARLINK-3654,1 52003U 22025AZ  22276.29243591  .00001814  00000-0  13199-3 0  9995,2 52003  53.2174 245.8320 0001435  66.5911 293.5232 15.08845677 33215,6917.863,95.437,540.721,538.735,0.0
52003.0,STARLINK-3654,PAYLOAD,2022-10-03 19:44:11,15.08847079,0.0001536,53.2167,243.4531,57.0349,303.079,0.00037569,5.697e-05,0.0,0 STARLINK-3654,1 52003U 22025AZ  22276.82235639  .00005697  00000-0  37569-3 0  9998,2 52003  53.2167 243.4531 0001536  57.0349 303.0790 15.08847079 31781,6917.859,95.437,540.786,538.661,0.0
52003.0,STARLINK-3654,PAYLOAD,2022-10-04 06:51:52,15.08859089,0.0001401,53.2167,241.3727,70.8784,289.236,0.00053325,8.213e-05,0.0,0 STARLINK-3654,1 52003U 22025AZ  22277.28602904  .00008213  00000-0  53325-3 0  9997,2 52003  53.2167 241.3727 0001401  70.8784 289.2360 15.08859089 31852,6917.821999999999,95.436,540.656,538.7180000000002,0.0
52003.0,STARLINK-3654,PAYLOAD,2022-10-04 16:24:11,15.08853928,0.0001426,53.2164,239.5888,72.8859,287.2289,0.00031411,4.717e-05,0.0,0 STARLINK-3654,1 52003U 22025AZ  22277.68346827  .00004717  00000-0  31411-3 0  9997,2 52003  53.2164 239.5888 0001426  72.8859 287.2289 15.08853928 33427,6917.8380000000025,95.437,540.689,538.716,0.0
52003.0,STARLINK-3654,PAYLOAD,2022-10-05 05:07:17,15.08839064,0.0001405,53.2167,237.2093,76.5961,283.5187,-9.6204e-05,-1.819e-05,0.0,0 STARLINK-3654,1 52003U 22025AZ  22278.21339158 -.00001819  00000-0 -96204-4 0  9990,2 52003  53.2167 237.2093 0001405  76.5961 283.5187 15.08839064 33505,6917.8830000000025,95.438,540.72,538.776,0.0
52003.0,STARLINK-3654,PAYLOAD,2022-10-05 06:42:40,15.08841494,0.0001416,53.2166,236.912,71.7907,288.3239,-3.2542e-05,-8.06e-06,0.0,0 STARLINK-3654,1 52003U 22025AZ  22278.27963099 -.00000806  00000-0 -32542-4 0  9993,2 52003  53.2166 236.9120 0001416  71.7907 288.3239 15.08841494 32005,6917.876,95.437,540.72,538.761,0.0
52003.0,STARLINK-3654,PAYLOAD,2022-10-05 14:39:35,15.0884146,0.0001457,53.2165,235.4252,69.9836,290.1313,1.6163e-05,-3.1e-07,0.0,0 STARLINK-3654,1 52003U 22025AZ  22278.61083093 -.00000031  00000-0  16163-4 0  9998,2 52003  53.2165 235.4252 0001457  69.9836 290.1313 15.08841460 32051,6917.876,95.437,540.749,538.7330000000002,0.0
52003.0,STARLINK-3654,PAYLOAD,2022-10-06 06:33:27,15.08837527,0.0001455,53.2177,232.4518,74.9041,285.2112,9.8186e-06,-1.32e-06,0.0,0 STARLINK-3654,1 52003U 22025AZ  22279.27323759 -.00000132  00000-0  98186-5 0  9995,2 52003  53.2177 232.4518 0001455  74.9041 285.2112 15.08837527 33667,6917.888000000001,95.438,540.76,538.746,0.0
52003.0,STARLINK-3654,PAYLOAD,2022-10-07 07:59:37,15.08844026,0.0001379,53.2177,227.6935,73.0606,287.0537,0.00025262,3.735e-05,0.0,0 STARLINK-3654,1 52003U 22025AZ  22280.33307695  .00003735  00000-0  25262-3 0  9999,2 52003  53.2177 227.6935 0001379  73.0606 287.0537 15.08844026 33829,6917.868,95.437,540.687,538.779,0.0
52003.0,STARLINK-3654,PAYLOAD,2022-10-08 03:04:15,15.08833331,0.0001382,53.2176,224.1258,73.4537,286.6607,5.6231e-05,6.07e-06,0.0,0 STARLINK-3654,1 52003U 22025AZ  22281.12796172  .00000607  00000-0  56231-4 0  9995,2 52003  53.2176 224.1258 0001382  73.4537 286.6607 15.08833331 33942,6917.901,95.438,540.722,538.81,0.0
52003.0,STARLINK-3654,PAYLOAD,2022-10-08 07:50:25,15.08828011,0.000136,53.2184,223.2339,73.124,286.9901,5.4509e-05,5.79e-06,0.0,0 STARLINK-3654,1 52003U 22025AZ  22281.32668535  .00000579  00000-0  54509-4 0  9992,2 52003  53.2184 223.2339 0001360  73.1240 286.9901 15.08828011 32460,6917.917,95.438,540.7230000000002,538.841,0.0
52003.0,STARLINK-3654,PAYLOAD,2022-10-09 12:27:21,15.08841578,0.0001333,53.2185,217.8818,73.2679,286.8459,0.00011807,1.592e-05,0.0,0 STARLINK-3654,1 52003U 22025AZ  22282.51899959  .00001592  00000-0  11807-3 0  9999,2 52003  53.2185 217.8818 0001333  73.2679 286.8459 15.08841578 34157,6917.876,95.437,540.663,538.818,0.0
52003.0,STARLINK-3654,PAYLOAD,2022-10-10 02:45:51,15.08802823,0.0001508,53.2184,215.205,78.9085,281.2077,0.00047032,7.198e-05,0.0,0 STARLINK-3654,1 52003U 22025AZ  22283.11517401  .00007198  00000-0  47032-3 0  9992,2 52003  53.2184 215.2050 0001508  78.9085 281.2077 15.08802823 34248,6917.994000000002,95.44,540.9019999999998,538.816,0.0
52003.0,STARLINK-3654,PAYLOAD,2022-10-10 05:56:36,15.08834934,0.0001395,53.2185,214.6099,69.6219,290.4923,4.8685e-05,4.87e-06,0.0,0 STARLINK-3654,1 52003U 22025AZ  22283.24764603  .00000487  00000-0  48685-4 0  9994,2 52003  53.2185 214.6099 0001395  69.6219 290.4923 15.08834934 34267,6917.896,95.438,540.726,538.7959999999998,0.0
52003.0,STARLINK-3654,PAYLOAD,2022-10-11 05:47:24,15.08833763,0.0001605,53.2185,210.152,56.8474,303.2672,7.691100000000001e-05,9.36e-06,0.0,0 STARLINK-3654,1 52003U 22025AZ  22284.24125018  .00000936  00000-0  76911-4 0  9998,2 52003  53.2185 210.1520 0001605  56.8474 303.2672 15.08833763 32904,6917.899,95.438,540.875,538.654,0.0
52003.0,STARLINK-3654,PAYLOAD,2022-10-12 02:27:26,15.0881941,0.0001322,53.2189,206.2843,75.262,284.8519,1.2465e-05,-9.000000000000002e-07,0.0,0 STARLINK-3654,1 52003U 22025AZ  22285.10238937 -.00000090  00000-0  12465-4 0  9995,2 52003  53.2189 206.2843 0001322  75.2620 284.8519 15.08819410 34545,6917.943,95.439,540.7230000000002,538.894,0.0
52003.0,STARLINK-3654,PAYLOAD,2022-10-12 04:02:49,15.08829122,0.0001225,53.2187,205.9877,83.8542,276.259,-7.050100000000001e-05,-1.409e-05,0.0,0 STARLINK-3654,1 52003U 22025AZ  22285.16862576 -.00001409  00000-0 -70501-4 0  9994,2 52003  53.2187 205.9877 0001225  83.8542 276.2590 15.08829122 34552,6917.9140000000025,95.438,540.626,538.931,0.0
52003.0,STARLINK-3654,PAYLOAD,2022-10-12 18:21:17,15.08835785,0.0001125999999999,53.219,203.3097,82.7935,277.3185,9.6342e-05,1.246e-05,0.0,0 STARLINK-3654,1 52003U 22025AZ  22285.76478179  .00001246  00000-0  96342-4 0  9990,2 52003  53.2190 203.3097 0001126  82.7935 277.3185 15.08835785 34640,6917.893,95.438,540.5369999999998,538.979,0.0
52003.0,STARLINK-3654,PAYLOAD,2022-10-13 11:50:31,15.08840503,0.0001264,53.2188,200.0393,78.7132,281.4002,0.00010428,1.372e-05,0.0,0 STARLINK-3654,1 52003U 22025AZ  22286.49342221  .00001372  00000-0  10428-3 0  9999,2 52003  53.2188 200.0393 0001264  78.7132 281.4002 15.08840503 33240,6917.879,95.438,540.618,538.869,0.0
52003.0,STARLINK-3654,PAYLOAD,2022-10-14 03:44:22,15.08854074,0.0001394,53.218,197.066,73.4356,286.6789,0.00042999,6.565e-05,0.0,0 STARLINK-3654,1 52003U 22025AZ  22287.15581911  .00006565  00000-0  42999-3 0  9991,2 52003  53.2180 197.0660 0001394  73.4356 286.6789 15.08854074 34853,6917.837,95.437,540.6669999999998,538.738,0.0
52003.0,STARLINK-3654,PAYLOAD,2022-10-14 11:41:18,15.08855748,0.0001476999999999,53.2181,195.5801,73.6002,286.5152,0.00037776,5.732e-05,0.0,0 STARLINK-3654,1 52003U 22025AZ  22287.48701669  .00005732  00000-0  37776-3 0  9993,2 52003  53.2181 195.5801 0001477  73.6002 286.5152 15.08855748 33396,6917.831999999999,95.437,540.719,538.675,0.0
52003.0,STARLINK-3654,PAYLOAD,2022-10-15 03:35:09,15.08844107,0.0001205,53.2192,192.6067,57.1259,302.9849,0.00012913,1.768e-05,0.0,0 STARLINK-3654,1 52003U 22025AZ  22288.14941552  .00001768  00000-0  12913-3 0  9995,2 52003  53.2192 192.6067 0001205  57.1259 302.9849 15.08844107 33494,6917.868,95.437,540.566,538.899,0.0
52003.0,STARLINK-3654,PAYLOAD,2022-10-16 05:01:19,15.0883737,0.0001564,53.2188,187.8495,68.4749,291.641,-0.00017958,-3.145e-05,0.0,0 STARLINK-3654,1 52003U 22025AZ  22289.20925863 -.00003145  00000-0 -17958-3 0  9997,2 52003  53.2188 187.8495 0001564  68.4749 291.6410 15.08837370 35165,6917.888000000001,95.438,540.835,538.6709999999998,0.0
